{"type":"FeatureCollection","name":"Desa Alale","crs":{"type":"name","properties":{"name":"urn:ogc:def:crs:OGC:1.3:CRS84"}},"features":[{"type":"Feature","properties":{"fid":77565,"ori_name":"Alale","kode_kec":"75.03.13","kode_kd":"75.03.13.2005","kode_kk":"75.03","kode_prov":"75","tipe_kd":1,"kecamatan":"Suwawa Tengah","kel_desa":"Alale","kab_kota":"Bone Bolango","provinsi":"Gorontalo","jenis_kd":"Desa","nama":"Desa Alale","label":"Desa Alale, Kecamatan Suwawa Tengah, Kabupaten Bone Bolango, Provinsi Gorontalo, 75.03.13.2005"},"geometry":{"type":"MultiPolygon","coordinates":[[[[123.171339599,0.530795118000071,0],[123.17116023,0.530644779000056,0],[123.170906124,0.530464375000065,0],[123.170572296,0.530288984000038,0],[123.170253419,0.530153685000073,0],[123.170054124,0.530108588000076,0],[123.169735249,0.530028413000025,0],[123.16947118,0.529933204000031,0],[123.168898196,0.529737774000068,0],[123.168435919,0.529551275000074,0],[123.167969396,0.529383305000067,0],[123.167569347,0.529285626000046,0],[123.167145842,0.529250557000069,0],[123.166642621,0.529240547000029,0],[123.166273924,0.529235546000052,0],[123.166013503,0.529175370000075,0],[123.165779328,0.529100204000031,0],[123.165433351,0.529042896000021,0],[123.165355823,0.529030054000032,0],[123.164857582,0.528964920000021,0],[123.164463972,0.528929851000044,0],[123.16409527,0.528874735000045,0],[123.163764044,0.528773656000055,0],[123.163400322,0.528593255000033,0],[123.16296685,0.528367752000065,0],[123.162030143,0.527771417000054,0],[123.161549953,0.52749308500006,0],[123.161305812,0.527377829000045,0],[123.161251422,0.527359596000053,0],[123.161522421,0.528120218000026,0],[123.161678096,0.528858157000059,0],[123.162145587,0.530538612000043,0],[123.162468245,0.531385033000049,0],[123.162678677,0.531878777000031,0],[123.163893632,0.533163873000035,0],[123.164162904,0.533457221000049,0],[123.164454616,0.533750568000073,0],[123.164791207,0.533953650000058,0],[123.165172669,0.534134166000058,0],[123.165554137,0.534359813000037,0],[123.165800968,0.534517766000022,0],[123.165980483,0.534630590000063,0],[123.166159997,0.534720849000053,0],[123.166406829,0.534901369000067,0],[123.166586345,0.535036757000057,0],[123.166765861,0.535194714000056,0],[123.166959907,0.535409274000074,0],[123.167037609,0.535612426000057,0],[123.167037612,0.535737446000041,0],[123.167022078,0.535932789000071,0],[123.166928845,0.536081251000041,0],[123.166757919,0.536346923000053,0],[123.166497198,0.537128366000047,0],[123.167342542,0.536865930000033,0],[123.167719634,0.536829802000057,0],[123.168240376,0.53686590600006,0],[123.168671337,0.536902009000073,0],[123.1692639,0.536811702000023,0],[123.17061215,0.536585871000057,0],[123.170983791,0.536289474000057,0],[123.171040012,0.535431697000035,0],[123.171077484,0.534884981000062,0],[123.171135769,0.533753595000064,0],[123.171226971,0.533231446000059,0],[123.171290638,0.53286693900003,0],[123.171384973,0.532244900000023,0],[123.171414429,0.53189285600007,0],[123.17138471,0.531594068000061,0],[123.171335186,0.531364998000072,0],[123.171320324,0.531150866000075,0],[123.171339599,0.530795118000071,0]]]]}}]}